NORAD_CAT_ID,OBJECT_NAME,OBJECT_TYPE,EPOCH,MEAN_MOTION,ECCENTRICITY,INCLINATION,RA_OF_ASC_NODE,ARG_OF_PERICENTER,MEAN_ANOMALY,BSTAR,MEAN_MOTION_DOT,MEAN_MOTION_DDOT,TLE_LINE0,TLE_LINE1,TLE_LINE2,SEMIMAJOR_AXIS,PERIOD,APOGEE,PERIGEE,DECAYED
55319.0,STARLINK-5196,PAYLOAD,2023-07-28 06:57:40,15.50927477,0.0003387,69.9966,256.1071,266.3719,93.708,-0.00066572,-0.0003867,0.0,0 STARLINK-5196,1 55319U 23010BC  23209.29005663 -.00038670  00000-0 -66572-3 0  9991,2 55319  69.9966 256.1071 0003387 266.3719  93.7080 15.50927477 30273,6792.154,92.848,416.319,411.718,0.0
55319.0,STARLINK-5196,PAYLOAD,2023-07-28 13:09:28,15.50696512,0.0002996,69.9967,255.4028,273.5313,86.553,-0.0011367,-0.00065154,0.0,0 STARLINK-5196,1 55319U 23010BC  23209.54825103 -.00065154  00000-0 -11367-2 0  9996,2 55319  69.9967 255.4028 0002996 273.5313  86.5530 15.50696512 31503,6792.828,92.861,416.728,412.658,0.0
55319.0,STARLINK-5196,PAYLOAD,2023-07-28 14:42:05,15.50896649,0.0003483,69.9978,255.23,265.0903,94.9885,-0.00076167,-0.00044142,0.0,0 STARLINK-5196,1 55319U 23010BC  23209.61256448 -.00044142  00000-0 -76167-3 0  9998,2 55319  69.9978 255.2300 0003483 265.0903  94.9885 15.50896649 30327,6792.244,92.85,416.475,411.743,0.0
55319.0,STARLINK-5196,PAYLOAD,2023-07-29 06:00:00,15.48709293,0.0003426,70.0004,253.4904,268.0135,46.8506,-0.019501,-0.00960797,0.0,0 STARLINK-5196,1 55319U 23010BC  23210.25001157 -.00960797  00000-0 -19501-1 0  9995,2 55319  70.0004 253.4904 0003426 268.0135  46.8506 15.48709293 30429,6798.638,92.981,422.832,418.174,0.0
55319.0,STARLINK-5196,PAYLOAD,2023-07-29 22:00:01,15.47337289,0.0003328,69.9998,251.6765,269.1211,159.9925,-0.017646,-0.00827636,0.0,0 STARLINK-5196,1 55319U 23010BC  23210.91668981 -.00827636  00000-0 -17646-1 0  9994,2 55319  69.9998 251.6765 0003328 269.1211 159.9925 15.47337289 30524,6802.656,93.063,426.785,422.257,0.0
55319.0,STARLINK-5196,PAYLOAD,2023-07-30 06:00:02,15.46747277,0.0003262,69.9999,250.7708,270.2617,214.7479,-0.020731,-0.00954295,0.0,0 STARLINK-5196,1 55319U 23010BC  23211.25002315 -.00954295  00000-0 -20731-1 0  9996,2 55319  69.9999 250.7708 0003262 270.2617 214.7479 15.46747277 30583,6804.386,93.099,428.47,424.031,0.0
55319.0,STARLINK-5196,PAYLOAD,2023-07-30 22:00:00,15.45387218,0.0003197,69.9995,248.9625,267.1523,327.2782,-0.019026,-0.00833587,0.0,0 STARLINK-5196,1 55319U 23010BC  23211.91667824 -.00833587  00000-0 -19026-1 0  9996,2 55319  69.9995 248.9625 0003197 267.1523 327.2782 15.45387218 30686,6808.378,93.181,432.419,428.066,0.0
55319.0,STARLINK-5196,PAYLOAD,2023-07-31 06:00:00,15.447844,0.0003281,69.9994,248.0598,268.4745,19.5116,-0.021929,-0.00944356,0.0,0 STARLINK-5196,1 55319U 23010BC  23212.25001157 -.00944356  00000-0 -21929-1 0  9997,2 55319  69.9994 248.0598 0003281 268.4745  19.5116 15.44784400 30730,6810.149,93.217,434.248,429.779,0.0
55319.0,STARLINK-5196,PAYLOAD,2023-07-31 22:00:00,15.4343332,0.0003336,69.9989,246.2565,269.9136,122.861,-0.020459,-0.00838186,0.0,0 STARLINK-5196,1 55319U 23010BC  23212.91667824 -.00838186  00000-0 -20459-1 0  9999,2 55319  69.9989 246.2565 0003336 269.9136 122.8610 15.43433320 30838,6814.122,93.298,438.261,433.714,0.0
55319.0,STARLINK-5196,PAYLOAD,2023-08-01 06:00:00,15.42826803,0.0003277,69.9991,245.3564,271.8076,172.1776,-0.023437,-0.00944378,0.0,0 STARLINK-5196,1 55319U 23010BC  23213.25001157 -.00944378  00000-0 -23437-1 0  9998,2 55319  69.9991 245.3564 0003277 271.8076 172.1776 15.42826803 30897,6815.908,93.335,440.007,435.54,0.0
55319.0,STARLINK-5196,PAYLOAD,2023-08-01 22:00:00,15.41482583,0.000313,69.9984,243.5581,268.3719,275.704,-0.022087,-0.00857623,0.0,0 STARLINK-5196,1 55319U 23010BC  23213.91667824 -.00857623  00000-0 -22087-1 0  9996,2 55319  69.9984 243.5581 0003130 268.3719 275.7040 15.41482583 30998,6819.87,93.417,443.87,439.6,0.0
55319.0,STARLINK-5196,PAYLOAD,2023-08-02 06:00:00,15.4086399,0.000319,69.9988,242.6605,269.1261,323.8182,-0.0247,-0.00932906,0.0,0 STARLINK-5196,1 55319U 23010BC  23214.25001157 -.00932906  00000-0 -24700-1 0  9997,2 55319  69.9988 242.6605 0003190 269.1261 323.8182 15.40863990 31049,6821.695,93.454,445.736,441.384,0.0
55319.0,STARLINK-5196,PAYLOAD,2023-08-03 14:00:01,15.38266884,0.0003317,69.9982,239.0784,275.8658,144.7265,-0.027113,-0.00939409,0.0,0 STARLINK-5196,1 55319U 23010BC  23215.58334491 -.00939409  00000-0 -27113-1 0  9990,2 55319  69.9982 239.0784 0003317 275.8658 144.7265 15.38266884 31246,6829.371,93.612,453.501,448.971,0.0
55319.0,STARLINK-5196,PAYLOAD,2023-08-04 22:00:00,15.35613191,0.0003327,69.9987,235.5108,266.5669,329.1792,-0.026816,-0.00859065,0.0,0 STARLINK-5196,1 55319U 23010BC  23216.91667824 -.00859065  00000-0 -26816-1 0  9995,2 55319  69.9987 235.5108 0003327 266.5669 329.1792 15.35613191 31453,6837.237,93.774,461.377,456.827,0.0
55319.0,STARLINK-5196,PAYLOAD,2023-08-05 06:00:00,15.34985531,0.0003436,69.999,234.6212,269.7225,7.8545,-0.029519,-0.00921356,0.0,0 STARLINK-5196,1 55319U 23010BC  23217.25001157 -.00921356  00000-0 -29519-1 0  9990,2 55319  69.9990 234.6212 0003436 269.7225   7.8545 15.34985531 31508,6839.1,93.812,463.315,458.616,0.0
55319.0,STARLINK-5196,PAYLOAD,2023-08-06 14:00:01,15.32397324,0.0003508,69.999,231.0708,275.0916,161.9672,-0.032884,-0.00943425,0.0,0 STARLINK-5196,1 55319U 23010BC  23218.58334491 -.00943425  00000-0 -32884-1 0  9997,2 55319  69.9990 231.0708 0003508 275.0916 161.9672 15.32397324 31717,6846.799,93.97,471.066,466.262,0.0
55319.0,STARLINK-5196,PAYLOAD,2023-08-06 22:00:00,15.31554923,0.0003469,69.9993,230.1854,265.7379,209.2643,0.0020393,0.00062705,0.0,0 STARLINK-5196,1 55319U 23010BC  23218.91667824  .00062705  00000-0  20393-2 0  9997,2 55319  69.9993 230.1854 0003469 265.7379 209.2643 15.31554923 31765,6849.309,94.022,473.551,468.798,0.0
55319.0,STARLINK-5196,PAYLOAD,2023-08-07 14:00:01,15.30446636,0.0003306,69.9992,228.4174,272.2248,276.2405,-0.035403,-0.00966753,0.0,0 STARLINK-5196,1 55319U 23010BC  23219.58334491 -.00966753  00000-0 -35403-1 0  9997,2 55319  69.9992 228.4174 0003306 272.2248 276.2405 15.30446636 31868,6852.616,94.09,476.746,472.215,0.0
55319.0,STARLINK-5196,PAYLOAD,2023-08-08 06:00:00,15.29106811,0.0003398,69.9996,226.6529,270.5599,348.2829,-0.034931,-0.00907575,0.0,0 STARLINK-5196,1 55319U 23010BC  23220.25001157 -.00907575  00000-0 -34931-1 0  9995,2 55319  69.9996 226.6529 0003398 270.5599 348.2829 15.29106811 31964,6856.618,94.173,480.813,476.153,0.0
55319.0,STARLINK-5196,PAYLOAD,2023-08-09 06:00:00,15.27145102,0.0003469,69.9993,224.0129,271.6759,86.8416,-0.036726,-0.00899249,0.0,0 STARLINK-5196,1 55319U 23010BC  23221.25001157 -.00899249  00000-0 -36726-1 0  9998,2 55319  69.9993 224.0129 0003469 271.6759  86.8416 15.27145102 32117,6862.489,94.294,486.734,481.973,0.0
55319.0,STARLINK-5196,PAYLOAD,2023-08-10 06:00:00,15.25180722,0.0003374,69.9991,221.381,273.5874,177.5654,-0.038399,-0.00886927,0.0,0 STARLINK-5196,1 55319U 23010BC  23222.25001157 -.00886927  00000-0 -38399-1 0  9996,2 55319  69.9991 221.3810 0003374 273.5874 177.5654 15.25180722 32270,6868.38,94.415,492.562,487.927,0.0
55319.0,STARLINK-5196,PAYLOAD,2023-08-10 22:00:01,15.23894296,0.0003179,69.9988,219.6309,268.3127,240.7318,-0.040185,-0.00903429,0.0,0 STARLINK-5196,1 55319U 23010BC  23222.91668981 -.00903429  00000-0 -40185-1 0  9996,2 55319  69.9988 219.6309 0003179 268.3127 240.7318 15.23894296 32372,6872.245,94.495,496.294,491.925,0.0
55319.0,STARLINK-5196,PAYLOAD,2023-08-11 14:00:01,15.22623198,0.0003157,69.9984,217.8841,272.6357,291.0544,-0.045401,-0.00976833,0.0,0 STARLINK-5196,1 55319U 23010BC  23223.58334491 -.00976833  00000-0 -45401-1 0  9991,2 55319  69.9984 217.8841 0003157 272.6357 291.0544 15.22623198 32479,6876.069,94.574,500.105,495.763,0.0
55319.0,STARLINK-5196,PAYLOAD,2023-08-11 22:00:01,15.2194266,0.0003189,69.9985,217.012,264.4102,325.5315,-0.042973,-0.00911132,0.0,0 STARLINK-5196,1 55319U 23010BC  23223.91668981 -.00911132  00000-0 -42973-1 0  9994,2 55319  69.9985 217.0120 0003189 264.4102 325.5315 15.21942660 32526,6878.118,94.616,502.177,497.79,0.0
55319.0,STARLINK-5196,PAYLOAD,2023-08-12 14:00:01,15.2066081,0.0003204,69.9982,215.2705,269.5972,10.3026,-0.047729,-0.00969767,0.0,0 STARLINK-5196,1 55319U 23010BC  23224.58334491 -.00969767  00000-0 -47729-1 0  9995,2 55319  69.9982 215.2705 0003204 269.5972  10.3026 15.20660810 32623,6881.983,94.696,506.053,501.643,0.0
55319.0,STARLINK-5196,PAYLOAD,2023-08-13 06:00:00,15.19323767,0.00033,69.9984,213.5325,269.8919,56.9099,-0.046385,-0.00910864,0.0,0 STARLINK-5196,1 55319U 23010BC  23225.25001157 -.00910864  00000-0 -46385-1 0  9991,2 55319  69.9984 213.5325 0003300 269.8919  56.9099 15.19323767 32727,6886.02,94.779,510.158,505.613,0.0
55319.0,STARLINK-5196,PAYLOAD,2023-08-13 22:00:00,15.18012392,0.0003282,69.9986,211.7978,266.092,104.4681,-0.046856,-0.00887535,0.0,0 STARLINK-5196,1 55319U 23010BC  23225.91667824 -.00887535  00000-0 -46856-1 0  9994,2 55319  69.9986 211.7978 0003282 266.0920 104.4681 15.18012392 32828,6889.985,94.861,514.112,509.589,0.0
55319.0,STARLINK-5196,PAYLOAD,2023-08-14 14:00:01,15.16742926,0.0003222,69.9984,210.0664,272.169,139.0212,-0.05316,-0.00964555,0.0,0 STARLINK-5196,1 55319U 23010BC  23226.58334491 -.00964555  00000-0 -53160-1 0  9993,2 55319  69.9984 210.0664 0003222 272.1690 139.0212 15.16742926 32933,6893.829,94.94,517.915,513.473,0.0
55319.0,STARLINK-5196,PAYLOAD,2023-08-15 06:00:00,15.1541042,0.0003219,69.9988,208.3389,272.813,175.89,-0.051947,-0.00911421,0.0,0 STARLINK-5196,1 55319U 23010BC  23227.25001157 -.00911421  00000-0 -51947-1 0  9993,2 55319  69.9988 208.3389 0003219 272.8130 175.8900 15.15410420 33037,6897.87,95.024,521.955,517.514,0.0
55319.0,STARLINK-5196,PAYLOAD,2023-08-15 18:00:00,15.1440866,0.0003208,69.999,207.0451,266.1373,28.6473,-0.051222,-0.00876122,0.0,0 STARLINK-5196,1 55319U 23010BC  23227.75001157 -.00876122  00000-0 -51222-1 0  9992,2 55319  69.9990 207.0451 0003208 266.1373  28.6473 15.14408660 33109,6900.911,95.087,524.99,520.563,0.0
